[{"OBJECT_NAME":"THORAD AGENA D DEB","OBJECT_ID":"1970-025CJ","EPOCH":"2026-03-04T11:59:10.396032","MEAN_MOTION":15.95084858,"ECCENTRICITY":0.0011684,"INCLINATION":99.5899,"RA_OF_ASC_NODE":75.7881,"ARG_OF_PERICENTER":165.9491,"MEAN_ANOMALY":194.2105,"EPHEMERIS_TYPE":0,"CLASSIFICATION_TYPE":"U","NORAD_CAT_ID":4735,"ELEMENT_SET_NO":999,"REV_AT_EPOCH":88050,"BSTAR":0.015129128,"MEAN_MOTION_DOT":0.04738231,"MEAN_MOTION_DDOT":0.031463035},{"OBJECT_NAME":"COSMOS 886 DEB","OBJECT_ID":"1976-126BN","EPOCH":"2026-03-04T01:32:50.178624","MEAN_MOTION":16.01515849,"ECCENTRICITY":0.00251214,"INCLINATION":65.6027,"RA_OF_ASC_NODE":312.6177,"ARG_OF_PERICENTER":190.1479,"MEAN_ANOMALY":169.9192,"EPHEMERIS_TYPE":0,"CLASSIFICATION_TYPE":"U","NORAD_CAT_ID":14501,"ELEMENT_SET_NO":999,"REV_AT_EPOCH":14977,"BSTAR":0.0074543443,"MEAN_MOTION_DOT":0.03621939,"MEAN_MOTION_DDOT":0.017651121},{"OBJECT_NAME":"COSMOS 1812","OBJECT_ID":"1987-003A","EPOCH":"2026-03-04T14:27:13.627584","MEAN_MOTION":16.296959,"ECCENTRICITY":0.00088057,"INCLINATION":82.469,"RA_OF_ASC_NODE":201.4045,"ARG_OF_PERICENTER":282.851,"MEAN_ANOMALY":77.18,"EPHEMERIS_TYPE":0,"CLASSIFICATION_TYPE":"U","NORAD_CAT_ID":17295,"ELEMENT_SET_NO":999,"REV_AT_EPOCH":14366,"BSTAR":0.00072969818,"MEAN_MOTION_DOT":0.03107865,"MEAN_MOTION_DDOT":-1.233031e-6},{"OBJECT_NAME":"IRIDIUM 51","OBJECT_ID":"1998-018A","EPOCH":"2026-03-04T13:37:02.662752","MEAN_MOTION":16.0068552,"ECCENTRICITY":0.00174028,"INCLINATION":86.3517,"RA_OF_ASC_NODE":283.3092,"ARG_OF_PERICENTER":303.7274,"MEAN_ANOMALY":56.2354,"EPHEMERIS_TYPE":0,"CLASSIFICATION_TYPE":"U","NORAD_CAT_ID":25262,"ELEMENT_SET_NO":999,"REV_AT_EPOCH":48753,"BSTAR":0.0014507798,"MEAN_MOTION_DOT":0.00773568,"MEAN_MOTION_DDOT":0.00027886968},{"OBJECT_NAME":"CZ-2D DEB","OBJECT_ID":"2005-024J","EPOCH":"2026-03-01T21:43:49.210752","MEAN_MOTION":15.92111318,"ECCENTRICITY":0.0004089,"INCLINATION":97.1482,"RA_OF_ASC_NODE":103.0739,"ARG_OF_PERICENTER":145.2826,"MEAN_ANOMALY":214.8716,"EPHEMERIS_TYPE":0,"CLASSIFICATION_TYPE":"U","NORAD_CAT_ID":31409,"ELEMENT_SET_NO":999,"REV_AT_EPOCH":11718,"BSTAR":0.00072484,"MEAN_MOTION_DOT":0.0023946,"MEAN_MOTION_DDOT":2.3346e-5},{"OBJECT_NAME":"ZIYUAN 3-01 (ZY 3-01)","OBJECT_ID":"2012-001A","EPOCH":"2026-03-04T14:58:19.088256","MEAN_MOTION":15.98415152,"ECCENTRICITY":0.00020873,"INCLINATION":97.1554,"RA_OF_ASC_NODE":138.2286,"ARG_OF_PERICENTER":247.5131,"MEAN_ANOMALY":112.5926,"EPHEMERIS_TYPE":0,"CLASSIFICATION_TYPE":"U","NORAD_CAT_ID":38046,"ELEMENT_SET_NO":999,"REV_AT_EPOCH":78789,"BSTAR":0.0010041972,"MEAN_MOTION_DOT":0.00464562,"MEAN_MOTION_DDOT":9.2962098e-5},{"OBJECT_NAME":"HUMSAT-D","OBJECT_ID":"2013-066T","EPOCH":"2026-03-04T12:02:59.780256","MEAN_MOTION":16.02000708,"ECCENTRICITY":0.00073443,"INCLINATION":97.4826,"RA_OF_ASC_NODE":76.1657,"ARG_OF_PERICENTER":166.7356,"MEAN_ANOMALY":193.4118,"EPHEMERIS_TYPE":0,"CLASSIFICATION_TYPE":"U","NORAD_CAT_ID":39433,"ELEMENT_SET_NO":999,"REV_AT_EPOCH":67063,"BSTAR":0.0021964424,"MEAN_MOTION_DOT":0.01235844,"MEAN_MOTION_DDOT":0.00083493076},{"OBJECT_NAME":"SPACEBEE-7","OBJECT_ID":"2018-099BL","EPOCH":"2026-03-04T04:33:23.402880","MEAN_MOTION":16.07262832,"ECCENTRICITY":0.00084354,"INCLINATION":97.439,"RA_OF_ASC_NODE":149.6974,"ARG_OF_PERICENTER":272.4852,"MEAN_ANOMALY":87.5464,"EPHEMERIS_TYPE":0,"CLASSIFICATION_TYPE":"U","NORAD_CAT_ID":43816,"ELEMENT_SET_NO":999,"REV_AT_EPOCH":39833,"BSTAR":0.0022287651,"MEAN_MOTION_DOT":0.01688633,"MEAN_MOTION_DDOT":0.0020344783},{"OBJECT_NAME":"STARLINK-1112","OBJECT_ID":"2020-001M","EPOCH":"2026-03-04T13:44:55.505760","MEAN_MOTION":16.07410982,"ECCENTRICITY":0.00044122,"INCLINATION":53.0322,"RA_OF_ASC_NODE":267.5997,"ARG_OF_PERICENTER":269.8638,"MEAN_ANOMALY":90.1889,"EPHEMERIS_TYPE":0,"CLASSIFICATION_TYPE":"U","NORAD_CAT_ID":44925,"ELEMENT_SET_NO":999,"REV_AT_EPOCH":34050,"BSTAR":0.00096020658,"MEAN_MOTION_DOT":0.00783108,"MEAN_MOTION_DDOT":0.00033183257},{"OBJECT_NAME":"STARLINK-1298","OBJECT_ID":"2020-019BF","EPOCH":"2026-03-04T16:00:05.999904","MEAN_MOTION":15.9320532,"ECCENTRICITY":0.00073507,"INCLINATION":53.035,"RA_OF_ASC_NODE":79.6377,"ARG_OF_PERICENTER":1.4395,"MEAN_ANOMALY":27.7058,"EPHEMERIS_TYPE":0,"CLASSIFICATION_TYPE":"U","NORAD_CAT_ID":45413,"ELEMENT_SET_NO":999,"REV_AT_EPOCH":596,"BSTAR":0.00066748509,"MEAN_MOTION_DOT":0.00238925,"MEAN_MOTION_DDOT":3.2821537e-5},{"OBJECT_NAME":"STARLINK-1484","OBJECT_ID":"2020-038AC","EPOCH":"2026-03-04T16:00:05.999904","MEAN_MOTION":15.98503668,"ECCENTRICITY":0.00068494,"INCLINATION":52.9982,"RA_OF_ASC_NODE":82.5776,"ARG_OF_PERICENTER":41.0681,"MEAN_ANOMALY":50.8922,"EPHEMERIS_TYPE":0,"CLASSIFICATION_TYPE":"U","NORAD_CAT_ID":45756,"ELEMENT_SET_NO":999,"REV_AT_EPOCH":604,"BSTAR":0.00085544365,"MEAN_MOTION_DOT":0.00410741,"MEAN_MOTION_DDOT":8.1663474e-5},{"OBJECT_NAME":"STARLINK-1601","OBJECT_ID":"2020-057D","EPOCH":"2026-03-04T13:48:51.813216","MEAN_MOTION":16.43249837,"ECCENTRICITY":0.00067506,"INCLINATION":53.0255,"RA_OF_ASC_NODE":280.3703,"ARG_OF_PERICENTER":266.1249,"MEAN_ANOMALY":93.9027,"EPHEMERIS_TYPE":0,"CLASSIFICATION_TYPE":"U","NORAD_CAT_ID":46120,"ELEMENT_SET_NO":999,"REV_AT_EPOCH":30740,"BSTAR":0.00047437165,"MEAN_MOTION_DOT":0.11310831,"MEAN_MOTION_DDOT":1.2444816e-5},{"OBJECT_NAME":"STARLINK-1587","OBJECT_ID":"2020-057AS","EPOCH":"2026-03-04T16:00:05.999904","MEAN_MOTION":15.9182478,"ECCENTRICITY":0.00033274,"INCLINATION":53.0321,"RA_OF_ASC_NODE":242.0448,"ARG_OF_PERICENTER":253.0001,"MEAN_ANOMALY":97.418,"EPHEMERIS_TYPE":0,"CLASSIFICATION_TYPE":"U","NORAD_CAT_ID":46157,"ELEMENT_SET_NO":999,"REV_AT_EPOCH":600,"BSTAR":0.0012913841,"MEAN_MOTION_DOT":0.0043164,"MEAN_MOTION_DDOT":8.2542771e-5},{"OBJECT_NAME":"STARLINK-1723","OBJECT_ID":"2020-062J","EPOCH":"2026-03-04T16:41:15.728352","MEAN_MOTION":16.23273067,"ECCENTRICITY":0.0007013,"INCLINATION":53.0353,"RA_OF_ASC_NODE":347.6124,"ARG_OF_PERICENTER":214.4826,"MEAN_ANOMALY":145.5759,"EPHEMERIS_TYPE":0,"CLASSIFICATION_TYPE":"U","NORAD_CAT_ID":46333,"ELEMENT_SET_NO":999,"REV_AT_EPOCH":30427,"BSTAR":0.0014797,"MEAN_MOTION_DOT":0.0383857,"MEAN_MOTION_DDOT":1.1878e-5}]
