THORAD AGENA D DEB      
1 04735U 70025CJ  26063.49942588  .04738231  31463-1  15129-1 0  9994
2 04735  99.5899  75.7881 0011684 165.9491 194.2105 15.95084858880507
COSMOS 886 DEB          
1 14501U 76126BN  26063.06446966  .03621939  17651-1  74543-2 0  9990
2 14501  65.6027 312.6177 0025121 190.1479 169.9192 16.01515849149773
COSMOS 1812             
1 17295U 87003A   26063.60224106  .03107865 -12330-5  72970-3 0  9993
2 17295  82.4690 201.4045 0008805 282.8510  77.1800 16.29695900143668
IRIDIUM 51              
1 25262U 98018A   26063.56739193  .00773568  27887-3  14508-2 0  9994
2 25262  86.3517 283.3092 0017402 303.7274  56.2354 16.00685520487531
CZ-2D DEB               
1 31409U 05024J   26060.90543068  .00239460  23346-4  72484-3 0  9991
2 31409  97.1482 103.0739 0004089 145.2826 214.8716 15.92111318117181
ZIYUAN 3-01 (ZY 3-01)   
1 38046U 12001A   26063.62383204  .00464562  92962-4  10042-2 0  9998
2 38046  97.1554 138.2286 0002087 247.5131 112.5926 15.98415152787890
HUMSAT-D                
1 39433U 13066T   26063.50208079  .01235844  83493-3  21964-2 0  9997
2 39433  97.4826  76.1657 0007344 166.7356 193.4118 16.02000708670637
SPACEBEE-7              
1 43816U 18099BL  26063.18985420  .01688633  20345-2  22288-2 0  9998
2 43816  97.4390 149.6974 0008435 272.4852  87.5464 16.07262832398333
STARLINK-1112           
1 44925U 20001M   26063.57286465  .00783108  33183-3  96021-3 0  9996
2 44925  53.0322 267.5997 0004412 269.8638  90.1889 16.07410982340504
STARLINK-1298           
1 45413U 20019BF  26063.66673611  .00238925  32822-4  66749-3 0  9997
2 45413  53.0350  79.6377 0007350   1.4395  27.7058 15.93205320  5960
STARLINK-1484           
1 45756U 20038AC  26063.66673611  .00410741  81663-4  85544-3 0  9997
2 45756  52.9982  82.5776 0006849  41.0681  50.8922 15.98503668  6043
STARLINK-1601           
1 46120U 20057D   26063.57559969  .11310831  12445-4  47437-3 0  9995
2 46120  53.0255 280.3703 0006750 266.1249  93.9027 16.43249837307407
STARLINK-1587           
1 46157U 20057AS  26063.66673611  .00431640  82543-4  12914-2 0  9993
2 46157  53.0321 242.0448 0003327 253.0001  97.4180 15.91824780  6009
STARLINK-1723           
1 46333U 20062J   26063.69532093  .03838570  11878-4  14797-2 0  9996
2 46333  53.0353 347.6124 0007013 214.4826 145.5759 16.23273067304274
